GPS BIIR-2  (PRN 13)    
1 24876U 97035A   22255.61402911  .00000009  00000+0  00000+0 0  9998
2 24876  55.5195 152.2736 0062347  52.2206 308.4078  2.00563102184400
GPS BIIR-4  (PRN 20)    
1 26360U 00025A   22255.41830808 -.00000034  00000+0  00000+0 0  9998
2 26360  54.1307  75.2752 0047929 185.2336 124.6350  2.00566143163712
GPS BIIR-6  (PRN 22)    
1 26605U 00071A   22255.56479184  .00000009  00000+0  00000+0 0  9994
2 26605  55.1044 149.2307 0136668 254.5824 286.9027  2.00555951159962
GPS BIIR-8  (PRN 16)    
1 27663U 03005A   22255.75140360 -.00000006  00000+0  00000+0 0  9999
2 27663  55.4564 269.5924 0125992  41.1255 126.8969  2.00559460143761
GPS BIIR-9  (PRN 21)    
1 27704U 03010A   22255.74494887 -.00000103  00000+0  00000+0 0  9994
2 27704  55.0542  19.7767 0244763 308.1915  70.5422  2.00560095142568
GPS BIIR-11 (PRN 19)    
1 28190U 04009A   22255.86424490 -.00000089  00000+0  00000+0 0  9992
2 28190  55.9484 330.5940 0089695 125.3049 278.8418  2.00558532135403
GPS BIIR-13 (PRN 02)    
1 28474U 04045A   22255.71907205 -.00000103  00000+0  00000+0 0  9998
2 28474  55.3800  19.9499 0202190 279.8488 260.1314  2.00421875130885
GPS BIIRM-1 (PRN 17)    
1 28874U 05038A   22255.83548152 -.00000085  00000+0  00000+0 0  9999
2 28874  56.0109 328.0331 0139562 275.0217 134.8557  2.00570700124294
GPS BIIRM-2 (PRN 31)    
1 29486U 06042A   22255.74821514  .00000010  00000+0  00000+0 0  9998
2 29486  54.7087 205.8046 0104277  23.1865 236.6154  2.00574244116848
GPS BIIRM-3 (PRN 12)    
1 29601U 06052A   22255.33207495 -.00000005  00000+0  00000+0 0  9994
2 29601  55.4661 268.5507 0082605  75.0270 285.9103  2.00555792115855
GPS BIIRM-4 (PRN 15)    
1 32260U 07047A   22255.14129313  .00000008  00000+0  00000+0 0  9997
2 32260  53.3351 136.9510 0143273  64.4342 297.1257  2.00569943109251
GPS BIIRM-5 (PRN 29)    
1 32384U 07062A   22255.61320594 -.00000085  00000+0  00000+0 0  9993
2 32384  56.1327 328.8144 0020876 145.1350 323.8829  2.00566957107966
GPS BIIRM-6 (PRN 07)    
1 32711U 08012A   22255.55580943  .00000008  00000+0  00000+0 0  9996
2 32711  54.4699 204.7274 0165906 231.9681 126.4970  2.00567484106200
GPS BIIRM-8 (PRN 05)    
1 35752U 09043A   22255.48856691 -.00000023  00000+0  00000+0 0  9995
2 35752  55.1393  82.0249 0059075  62.4118 261.0068  2.00550826 95806
GPS BIIF-1  (PRN 25)    
1 36585U 10022A   22255.59418344 -.00000003  00000+0  00000+0 0  9998
2 36585  54.7523 263.9985 0103196  56.7915 104.5421  2.00569766 90041
GPS BIIF-2  (PRN 01)    
1 37753U 11036A   22255.83588056 -.00000097  00000+0  00000+0 0  9990
2 37753  56.6438  25.3062 0118392  53.4319   6.0596  2.00565871 81735
GPS BIIF-3  (PRN 24)    
1 38833U 12053A   22255.23911850  .00000003  00000+0  00000+0 0  9992
2 38833  53.5259 199.7978 0128147  47.2397 313.8042  2.00562844 71887
GPS BIIF-4  (PRN 27)    
1 39166U 13023A   22255.09746495 -.00000077  00000+0  00000+0 0  9997
2 39166  55.6355 324.4008 0104173  38.4726 322.3288  2.00565408 68320
GPS BIIF-5  (PRN 30)    
1 39533U 14008A   22255.59807079  .00000007  00000+0  00000+0 0  9992
2 39533  53.6186 205.2984 0060678 209.8405 149.7845  2.00558346 62132
GPS BIIF-6  (PRN 06)    
1 39741U 14026A   22254.88423735 -.00000097  00000+0  00000+0 0  9997
2 39741  56.6040  24.8693 0026649 304.3077  55.4379  2.00549809 60972
GPS BIIF-7  (PRN 09)    
1 40105U 14045A   22254.96610518  .00000011  00000+0  00000+0 0  9995
2 40105  54.7080 143.3504 0022526 111.0550 249.2631  2.00553131 58512
GPS BIIF-8  (PRN 03)    
1 40294U 14068A   22255.83302647 -.00000021  00000+0  00000+0 0  9999
2 40294  55.8831  84.4843 0043012  58.7944 301.6824  2.00577584 57665
GPS BIIF-9  (PRN 26)    
1 40534U 15013A   22255.48130256 -.00000004  00000+0  00000+0 0  9994
2 40534  53.6531 261.0881 0070333  19.6548 340.6230  2.00576873 54270
GPS BIIF-10 (PRN 08)    
1 40730U 15033A   22255.13915048 -.00000077  00000+0  00000+0 0  9996
2 40730  55.1318 323.1865 0074521   7.6010 352.5760  2.00573705 52431
GPS BIIF-11 (PRN 10)    
1 41019U 15062A   22253.69184475 -.00000003  00000+0  00000+0 0  9999
2 41019  55.8689  84.4134 0080274 217.3033 142.2013  2.00562523 50241
GPS BIIF-12 (PRN 32)    
1 41328U 16007A   22254.77734060  .00000012  00000+0  00000+0 0  9992
2 41328  54.9231 144.0502 0062583 230.0798 129.4440  2.00566829 48276
GPS BIII-1  (PRN 04)    
1 43873U 18109A   22255.18569368  .00000011  00000+0  00000+0 0  9996
2 43873  55.1027 146.4716 0020299 189.6744 358.7052  2.00553993 27462
GPS BIII-2  (PRN 18)    
1 44506U 19056A   22255.80938892 -.00000098  00000+0  00000+0 0  9999
2 44506  55.7180  25.5779 0028105 180.1214 358.5168  2.00558206 22520
GPS BIII-3  (PRN 23)    
1 45854U 20041A   22251.62686747  .00000009  00000+0  00000+0 0  9998
2 45854  55.5866  83.0111 0026027 177.1445 158.1648  2.00557350 16404
GPS BIII-4  (PRN 14)    
1 46826U 20078A   22255.86697747 -.00000005  00000+0  00000+0 0  9997
2 46826  54.5134 266.5461 0023256 191.4842 302.7086  2.00565155 13961
GPS BIII-5  (PRN 11)    
1 48859U 21054A   22255.86903362 -.00000097  00000+0  00000+0 0  9994
2 48859  55.2260  27.5323 0007452 195.8839 124.7674  2.00568426  9204
